OBJECT_NAME,OBJECT_ID,EPOCH,MEAN_MOTION,ECCENTRICITY,INCLINATION,RA_OF_ASC_NODE,ARG_OF_PERICENTER,MEAN_ANOMALY,EPHEMERIS_TYPE,CLASSIFICATION_TYPE,NORAD_CAT_ID,ELEMENT_SET_NO,REV_AT_EPOCH,BSTAR,MEAN_MOTION_DOT,MEAN_MOTION_DDOT
IONOSFERA-M 2,2024-199B,2026-07-17T14:36:36.698112,14.22762807,.00005866,98.7130,71.3645,128.6483,231.4748,0,U,61736,999,13515,.23732404E-4,.9E-7,0
PRSC-EO1,2025-012A,2026-07-17T15:39:42.994944,15.17638322,.00069519,97.4211,270.5150,139.5111,220.6641,0,U,62725,999,8281,.15091467E-3,.2971E-4,0
BIOMASS,2025-090A,2026-07-17T10:41:31.278624,14.67536496,.00014759,98.0751,25.3200,92.4188,267.7185,0,U,63772,999,6512,.49484786E-4,.233E-5,0
GOSAT-GW (IBUKI GW),2025-141A,2026-07-17T14:22:40.528416,14.67554615,.00014194,98.0565,135.4221,84.9500,275.1867,0,U,64694,999,5630,.11611704E-4,.18E-6,0
IONOSFERA-M 3,2025-155A,2026-07-17T13:59:58.498944,14.21491054,.00023543,98.6042,159.7261,108.9288,251.2145,0,U,64876,999,5072,.23809091E-4,.9E-7,0
IONOSFERA-M 4,2025-155B,2026-07-17T14:50:04.283232,14.21493453,.0001858,98.6041,159.6771,97.3120,262.8269,0,U,64877,999,5072,.23782682E-4,.9E-7,0
MICROCARB,2025-156A,2026-07-16T18:33:32.900544,14.72886118,.00177456,98.0074,274.4532,165.7348,194.4365,0,U,64899,999,5232,.47437536E-4,.254E-5,0
CO3D 3,2025-156B,2026-07-17T14:20:47.045472,15.20202465,.00017543,97.4333,276.8539,93.7021,266.4415,0,U,64900,999,5415,.95781116E-4,.2006E-4,0
CO3D 4,2025-156C,2026-07-17T14:21:00.202464,15.20201683,.0001803,97.4337,276.8537,149.4052,210.7289,0,U,64901,999,5415,.31633575E-4,.617E-5,0
CO3D 2,2025-156D,2026-07-17T15:07:45.864480,15.20205288,.0001212,97.4334,276.7848,90.3772,269.7602,0,U,64902,999,5415,.14544877E-3,.3083E-4,0
CO3D 1,2025-156E,2026-07-17T15:07:58.632672,15.20212230,.00013385,97.4334,276.7849,102.9703,257.1682,0,U,64903,999,5415,.10304489E-3,.2164E-4,0
PRSC-S1,2025-164A,2026-07-17T05:28:34.201632,15.06645016,.00070251,41.1301,118.5925,210.7124,149.3280,0,U,65055,999,5296,.16050684E-3,.2245E-4,0
SENTINEL-6B,2025-264A,2026-07-17T01:36:27.927360,12.80930176,.00078409,66.0412,73.1188,268.5819,91.4298,0,U,66514,999,3099,.88133266E-4,-.41E-6,0
CAS500-3,2025-274F,2026-07-17T06:24:18.114912,14.88386584,.00061081,97.7436,125.6340,32.5250,327.6343,0,U,66655,999,3462,.67773387E-4,.574E-5,0
CSG-3,2026-001A,2026-07-13T12:40:32.844288,14.82151371,.00015181,97.8894,17.7492,93.3222,266.8165,0,U,67304,999,2836,.2348529E-4,.135E-5,0
PRSC-E03,2026-092A,2026-07-17T14:34:08.050368,15.06814829,.00050302,38.0010,270.2816,265.9263,94.0924,0,U,68835,999,1254,.7503795E-4,.1029E-4,0
CAS500-2,2026-100AK,2026-07-17T10:05:13.160544,15.19739504,.00079154,97.3855,95.6982,244.2086,115.8333,0,U,69013,999,1140,.15822149E-3,.3316E-4,0
