IONOSFERA-M 2           
1 61736U 24199B   26198.60875808  .00000009  00000+0  23732-4 0  9995
2 61736  98.7130  71.3645 0000586 128.6483 231.4748 14.22762807135153
PRSC-EO1                
1 62725U 25012A   26198.65258096  .00002971  00000+0  15091-3 0  9996
2 62725  97.4211 270.5150 0006951 139.5111 220.6641 15.17638322 82818
BIOMASS                 
1 63772U 25090A   26198.44550091  .00000233  00000+0  49485-4 0  9996
2 63772  98.0751  25.3200 0001475  92.4188 267.7185 14.67536496 65129
GOSAT-GW (IBUKI GW)     
1 64694U 25141A   26198.59908019  .00000018  00000+0  11612-4 0  9992
2 64694  98.0565 135.4221 0001419  84.9500 275.1867 14.67554615 56307
IONOSFERA-M 3           
1 64876U 25155A   26198.58331596  .00000009  00000+0  23809-4 0  9999
2 64876  98.6042 159.7261 0002354 108.9288 251.2145 14.21491054 50728
IONOSFERA-M 4           
1 64877U 25155B   26198.61810513  .00000009  00000+0  23783-4 0  9996
2 64877  98.6041 159.6771 0001858  97.3120 262.8269 14.21493453 50727
MICROCARB               
1 64899U 25156A   26197.77329746  .00000254  00000+0  47438-4 0  9995
2 64899  98.0074 274.4532 0017745 165.7348 194.4365 14.72886118 52321
CO3D 3                  
1 64900U 25156B   26198.59776673  .00002006  00000+0  95781-4 0  9995
2 64900  97.4333 276.8539 0001754  93.7021 266.4415 15.20202465 54159
CO3D 4                  
1 64901U 25156C   26198.59791901  .00000617  00000+0  31634-4 0  9990
2 64901  97.4337 276.8537 0001803 149.4052 210.7289 15.20201683 54152
CO3D 2                  
1 64902U 25156D   26198.63039195  .00003083  00000+0  14545-3 0  9997
2 64902  97.4334 276.7848 0001212  90.3772 269.7602 15.20205288 54159
CO3D 1                  
1 64903U 25156E   26198.63053973  .00002164  00000+0  10304-3 0  9996
2 64903  97.4334 276.7849 0001338 102.9703 257.1682 15.20212230 54158
PRSC-S1                 
1 65055U 25164A   26198.22817363  .00002245  00000+0  16051-3 0  9995
2 65055  41.1301 118.5925 0007025 210.7124 149.3280 15.06645016 52968
SENTINEL-6B             
1 66514U 25264A   26198.06698990 -.00000041  00000+0  88133-4 0  9996
2 66514  66.0412  73.1188 0007840 268.5819  91.4298 12.80930176 30990
CAS500-3                
1 66655U 25274F   26198.26687633  .00000574  00000+0  67773-4 0  9994
2 66655  97.7436 125.6340 0006108  32.5250 327.6343 14.88386584 34627
CSG-3                   
1 67304U 26001A   26194.52815792  .00000135  00000+0  23485-4 0  9994
2 67304  97.8894  17.7492 0001518  93.3222 266.8165 14.82151371 28369
PRSC-E03                
1 68835U 26092A   26198.60703762  .00001029  00000+0  75038-4 0  9994
2 68835  38.0010 270.2816 0005030 265.9263  94.0924 15.06814829 12545
CAS500-2                
1 69013U 26100AK  26198.42029121  .00003316  00000+0  15822-3 0  9998
2 69013  97.3855  95.6982 0007915 244.2086 115.8333 15.19739504 11409
